[{"OBJECT_NAME":"TIANQI-30","OBJECT_ID":"2024-170B","EPOCH":"2026-03-09T21:12:35.925696","MEAN_MOTION":13.99108215,"ECCENTRICITY":0.00073562,"INCLINATION":44.8573,"RA_OF_ASC_NODE":219.7467,"ARG_OF_PERICENTER":348.864,"MEAN_ANOMALY":11.2027,"EPHEMERIS_TYPE":0,"CLASSIFICATION_TYPE":"U","NORAD_CAT_ID":61196,"ELEMENT_SET_NO":999,"REV_AT_EPOCH":7514,"BSTAR":0.00015101547,"MEAN_MOTION_DOT":9.2e-7,"MEAN_MOTION_DDOT":0},{"OBJECT_NAME":"THOR ABLESTAR DEB","OBJECT_ID":"1961-015MM","EPOCH":"2026-03-09T09:28:20.337312","MEAN_MOTION":14.06330906,"ECCENTRICITY":0.00887064,"INCLINATION":66.8761,"RA_OF_ASC_NODE":55.358,"ARG_OF_PERICENTER":106.4091,"MEAN_ANOMALY":42.1663,"EPHEMERIS_TYPE":0,"CLASSIFICATION_TYPE":"U","NORAD_CAT_ID":21986,"ELEMENT_SET_NO":999,"REV_AT_EPOCH":73886,"BSTAR":0.00020349891,"MEAN_MOTION_DOT":2.69e-6,"MEAN_MOTION_DDOT":0}]
